OBJECT_NAME,OBJECT_ID,EPOCH,MEAN_MOTION,ECCENTRICITY,INCLINATION,RA_OF_ASC_NODE,ARG_OF_PERICENTER,MEAN_ANOMALY,EPHEMERIS_TYPE,CLASSIFICATION_TYPE,NORAD_CAT_ID,ELEMENT_SET_NO,REV_AT_EPOCH,BSTAR,MEAN_MOTION_DOT,MEAN_MOTION_DDOT
STARLINK-36444,2026-012AE,2026-07-07T19:14:48.785856,15.27606884,.00017455,43.0015,355.8772,289.8943,70.1720,0,U,67521,999,2613,.43741113E-3,.11804E-3,0
STARLINK-36587,2026-014A,2026-07-07T03:35:53.334240,15.33442483,.00009969,97.2872,74.6260,91.5436,268.5920,0,U,67532,999,2709,.40114513E-3,.12896E-3,0
STARLINK-36417,2026-014B,2026-07-08T10:16:05.537568,15.33457940,.00015062,97.2857,75.7958,88.9471,271.1944,0,U,67533,999,2728,.47198872E-3,.152E-3,0
STARLINK-36576,2026-014C,2026-07-08T03:44:33.743904,15.33437149,.0001819,97.2859,75.5542,94.6282,265.5168,0,U,67534,999,2724,.36520539E-3,.11731E-3,0
STARLINK-36574,2026-014D,2026-07-08T14:14:57.280992,15.33419120,.00020092,97.2855,76.0294,93.6269,266.5204,0,U,67535,999,2731,.40445264E-3,.12994E-3,0
STARLINK-36572,2026-014E,2026-07-08T10:04:21.127008,15.33463973,.00012363,97.2852,75.8071,106.3372,253.8007,0,U,67536,999,2728,.69940306E-3,.22585E-3,0
STARLINK-36561,2026-014F,2026-07-08T09:52:35.282208,15.33461358,.00008594,97.2855,75.8167,249.5027,110.6124,0,U,67537,999,2728,.47606197E-3,.15333E-3,0
STARLINK-36397,2026-014G,2026-07-08T03:13:14.216448,15.33452693,.0001262,97.2843,75.5802,124.1085,236.0277,0,U,67538,999,2724,.50259365E-3,.16189E-3,0
STARLINK-36573,2026-014H,2026-07-08T14:30:35.338752,15.33453141,.00019449,97.2850,76.0149,78.3958,281.7503,0,U,67539,999,2731,.52298675E-3,.16851E-3,0
STARLINK-36585,2026-014J,2026-07-08T14:22:46.480512,15.33414320,.00018749,97.2856,76.0198,75.0623,285.0828,0,U,67540,999,2731,.82346899E-4,.2582E-4,0
STARLINK-36579,2026-014K,2026-07-08T10:27:49.870368,15.33462054,.00022996,97.2865,75.9369,105.5156,254.6341,0,U,67541,999,2729,.39244464E-3,.12623E-3,0
STARLINK-35934,2026-014L,2026-07-08T10:35:40.443648,15.33452896,.00015948,97.2860,75.9324,98.0119,262.1305,0,U,67542,999,2728,.3756009E-3,.12073E-3,0
STARLINK-36581,2026-014M,2026-07-08T14:26:38.606208,15.33467392,.00016865,97.2853,76.0210,88.4755,271.6681,0,U,67543,999,2731,.60964841E-3,.19672E-3,0
STARLINK-36565,2026-014N,2026-07-08T13:04:27.725376,15.33480285,.00014865,97.2851,75.9448,67.7837,292.3563,0,U,67544,999,2730,.88498061E-3,.28636E-3,0
STARLINK-36583,2026-014P,2026-07-08T03:01:30.021024,15.33445922,.00024085,97.2856,75.5938,88.3881,271.7637,0,U,67545,999,2724,.34551008E-3,.11097E-3,0
STARLINK-36580,2026-014Q,2026-07-08T03:52:23.625984,15.33459411,.00018791,97.2860,75.5473,115.4521,244.6916,0,U,67546,999,2724,.75015799E-3,.24232E-3,0
STARLINK-36584,2026-014R,2026-07-07T03:24:10.873728,15.33435021,.00016301,97.2858,74.6375,98.1346,262.0082,0,U,67547,999,2709,.3719508E-3,.11948E-3,0
STARLINK-36586,2026-014S,2026-07-08T10:39:35.744544,15.33467545,.00018188,97.2853,75.9295,96.6309,263.5141,0,U,67548,999,2729,.44986998E-3,.14487E-3,0
STARLINK-36564,2026-014T,2026-07-08T10:12:10.879488,15.33448484,.00022458,97.2857,75.8010,86.8561,273.2939,0,U,67549,999,2722,.51636658E-3,.16635E-3,0
STARLINK-36563,2026-014U,2026-07-08T10:31:45.356160,15.33447691,.00018675,97.2849,75.9337,101.1307,259.0146,0,U,67550,999,2729,.62868494E-3,.20278E-3,0
STARLINK-36566,2026-014V,2026-07-08T10:20:00.851424,15.33451702,.0002177,97.2861,75.7932,92.4010,267.7482,0,U,67551,999,2727,.58651202E-3,.18912E-3,0
STARLINK-36567,2026-014W,2026-07-07T03:28:05.608704,15.33446276,.00013901,97.2853,74.6314,88.3312,271.8090,0,U,67552,999,2708,.55475903E-3,.17878E-3,0
STARLINK-36569,2026-014X,2026-07-07T16:11:32.700192,15.33456132,.0002806,97.2858,75.1390,107.3951,252.7599,0,U,67553,999,2716,.57595703E-3,.18573E-3,0
STARLINK-36395,2026-014Y,2026-07-07T16:30:32.079456,15.33443550,.00020206,97.2849,78.0192,95.1675,264.9798,0,U,67554,999,2735,.43875366E-3,.14116E-3,0
STARLINK-36559,2026-014Z,2026-07-08T14:18:49.222656,15.33476313,.00016073,97.2881,76.0290,122.1109,238.0290,0,U,67555,999,2730,.48869598E-3,.15751E-3,0
STARLINK-36426,2026-014AA,2026-07-08T10:23:56.067648,15.33465933,.00017396,97.2857,75.9426,97.0998,263.0442,0,U,67560,999,2728,.38978713E-3,.12538E-3,0
STARLINK-36621,2026-016A,2026-07-08T10:11:41.278848,15.33458070,.00000657,97.2847,249.0721,248.4701,111.6535,0,U,67561,999,2536,.54887479E-3,.17693E-3,0
STARLINK-36398,2026-016B,2026-07-08T10:23:25.743840,15.33448871,.00005382,97.2850,249.2130,254.8602,105.2581,0,U,67562,999,2537,.37364882E-3,.12008E-3,0
STARLINK-36403,2026-016C,2026-07-07T17:37:12.606816,15.33460368,.00012643,97.2829,248.4801,48.5168,311.6184,0,U,67563,999,2526,.59937284E-3,.19334E-3,0
STARLINK-36593,2026-016D,2026-07-08T03:08:50.039808,15.33448198,.00017938,97.2840,248.8573,84.0397,276.1051,0,U,67564,999,2532,.6361928E-3,.20522E-3,0
