STARLINK-36444          
1 67521U 26012AE  26188.80195354  .00011804  00000+0  43741-3 0  9997
2 67521  43.0015 355.8772 0001745 289.8943  70.1720 15.27606884 26139
STARLINK-36587          
1 67532U 26014A   26188.14992285  .00012896  00000+0  40115-3 0  9990
2 67532  97.2872  74.6260 0000996  91.5436 268.5920 15.33442483 27094
STARLINK-36417          
1 67533U 26014B   26189.42784187  .00015200  00000+0  47199-3 0  9994
2 67533  97.2857  75.7958 0001506  88.9471 271.1944 15.33457940 27282
STARLINK-36576          
1 67534U 26014C   26189.15594611  .00011731  00000+0  36521-3 0  9998
2 67534  97.2859  75.5542 0001819  94.6282 265.5168 15.33437149 27243
STARLINK-36574          
1 67535U 26014D   26189.59371853  .00012994  00000+0  40445-3 0  9990
2 67535  97.2855  76.0294 0002009  93.6269 266.5204 15.33419120 27315
STARLINK-36572          
1 67536U 26014E   26189.41968897  .00022585  00000+0  69940-3 0  9990
2 67536  97.2852  75.8071 0001236 106.3372 253.8007 15.33463973 27282
STARLINK-36561          
1 67537U 26014F   26189.41151947  .00015333  00000+0  47606-3 0  9999
2 67537  97.2855  75.8167 0000859 249.5027 110.6124 15.33461358 27284
STARLINK-36397          
1 67538U 26014G   26189.13419232  .00016189  00000+0  50259-3 0  9991
2 67538  97.2843  75.5802 0001262 124.1085 236.0277 15.33452693 27246
STARLINK-36573          
1 67539U 26014H   26189.60457568  .00016851  00000+0  52299-3 0  9990
2 67539  97.2850  76.0149 0001944  78.3958 281.7503 15.33453141 27317
STARLINK-36585          
1 67540U 26014J   26189.59914908  .00002582  00000+0  82347-4 0  9990
2 67540  97.2856  76.0198 0001874  75.0623 285.0828 15.33414320 27317
STARLINK-36579          
1 67541U 26014K   26189.43599387  .00012623  00000+0  39244-3 0  9998
2 67541  97.2865  75.9369 0002299 105.5156 254.6341 15.33462054 27294
STARLINK-35934          
1 67542U 26014L   26189.44144032  .00012073  00000+0  37560-3 0  9991
2 67542  97.2860  75.9324 0001594  98.0119 262.1305 15.33452896 27289
STARLINK-36581          
1 67543U 26014M   26189.60183572  .00019672  00000+0  60965-3 0  9999
2 67543  97.2853  76.0210 0001686  88.4755 271.6681 15.33467392 27312
STARLINK-36565          
1 67544U 26014N   26189.54476534  .00028636  00000+0  88498-3 0  9997
2 67544  97.2851  75.9448 0001486  67.7837 292.3563 15.33480285 27305
STARLINK-36583          
1 67545U 26014P   26189.12604191  .00011097  00000+0  34551-3 0  9998
2 67545  97.2856  75.5938 0002408  88.3881 271.7637 15.33445922 27249
STARLINK-36580          
1 67546U 26014Q   26189.16138456  .00024232  00000+0  75016-3 0  9995
2 67546  97.2860  75.5473 0001879 115.4521 244.6916 15.33459411 27240
STARLINK-36584          
1 67547U 26014R   26188.14179252  .00011948  00000+0  37195-3 0  9998
2 67547  97.2858  74.6375 0001630  98.1346 262.0082 15.33435021 27098
STARLINK-36586          
1 67548U 26014S   26189.44416371  .00014487  00000+0  44987-3 0  9997
2 67548  97.2853  75.9295 0001818  96.6309 263.5141 15.33467545 27299
STARLINK-36564          
1 67549U 26014T   26189.42512592  .00016635  00000+0  51637-3 0  9995
2 67549  97.2857  75.8010 0002245  86.8561 273.2939 15.33448484 27221
STARLINK-36563          
1 67550U 26014U   26189.43871940  .00020278  00000+0  62868-3 0  9999
2 67550  97.2849  75.9337 0001867 101.1307 259.0146 15.33447691 27293
STARLINK-36566          
1 67551U 26014V   26189.43056541  .00018912  00000+0  58651-3 0  9999
2 67551  97.2861  75.7932 0002177  92.4010 267.7482 15.33451702 27270
STARLINK-36567          
1 67552U 26014W   26188.14450936  .00017878  00000+0  55476-3 0  9995
2 67552  97.2853  74.6314 0001390  88.3312 271.8090 15.33446276 27089
STARLINK-36569          
1 67553U 26014X   26188.67468403  .00018573  00000+0  57596-3 0  9990
2 67553  97.2858  75.1390 0002806 107.3951 252.7599 15.33456132 27162
STARLINK-36395          
1 67554U 26014Y   26188.68787129  .00014116  00000+0  43875-3 0  9995
2 67554  97.2849  78.0192 0002020  95.1675 264.9798 15.33443550 27357
STARLINK-36559          
1 67555U 26014Z   26189.59640304  .00015751  00000+0  48870-3 0  9996
2 67555  97.2881  76.0290 0001607 122.1109 238.0290 15.33476313 27301
STARLINK-36426          
1 67560U 26014AA  26189.43328782  .00012538  00000+0  38979-3 0  9997
2 67560  97.2857  75.9426 0001739  97.0998 263.0442 15.33465933 27281
STARLINK-36621          
1 67561U 26016A   26189.42478332  .00017693  00000+0  54887-3 0  9999
2 67561  97.2847 249.0721 0000065 248.4701 111.6535 15.33458070 25360
STARLINK-36398          
1 67562U 26016B   26189.43293685  .00012008  00000+0  37365-3 0  9994
2 67562  97.2850 249.2130 0000538 254.8602 105.2581 15.33448871 25376
STARLINK-36403          
1 67563U 26016C   26188.73417369  .00019334  00000+0  59937-3 0  9992
2 67563  97.2829 248.4801 0001264  48.5168 311.6184 15.33460368 25266
STARLINK-36593          
1 67564U 26016D   26189.13113472  .00020522  00000+0  63619-3 0  9999
2 67564  97.2840 248.8573 0001793  84.0397 276.1051 15.33448198 25328
